KUIPER-00191            
1 67143U 25301L   26195.50573976 -.00000299  00000+0 -10235-4 0  9993
2 67143  51.8997 232.3687 0000352  87.4872 272.6130 14.79930682 32431
KUIPER-00196            
1 67144U 25301M   26195.98570219  .00000875  00000+0  15551-3 0  9996
2 67144  51.8974 186.6220 0001199 352.4341   7.6601 14.76346659 33080
KUIPER-00204            
1 67145U 25301N   26195.50163764  .00001038  00000+0  16513-3 0  9999
2 67145  51.9010 204.8713 0000391  19.9370 340.1608 14.79929975 32906
KUIPER-00210            
1 67146U 25301P   26195.40445342  .00001178  00000+0  18342-3 0  9991
2 67146  51.8992 232.7695 0000422  86.0194 274.0817 14.79935262 32563
KUIPER-00221            
1 67147U 25301Q   26195.49764937  .00001078  00000+0  17045-3 0  9993
2 67147  51.9003 239.8823 0000448  78.2062 281.8951 14.79927935 32309
KUIPER-00232            
1 67148U 25301R   26195.61512120 -.00001622  00000+0 -18386-3 0  9999
2 67148  51.8989 224.3839 0000409 106.4229 253.6778 14.79936781 32521
KUIPER-00241            
1 67149U 25301S   26195.91670139  .00023686  00000+0  31272-2 0  9998
2 67149  51.9009 233.0519 0000401  92.6822 312.7446 14.79904262  4241
KUIPER-00245            
1 67150U 25301T   26195.49495632  .00001138  00000+0  17835-3 0  9994
2 67150  51.9018 242.4282 0000392  97.9621 262.1386 14.79923841 32266
KUIPER-00246            
1 67151U 25301U   26195.61243474  .00001122  00000+0  17620-3 0  9999
2 67151  51.8994 226.8598 0000463 102.0124 258.0891 14.79935009 32512
KUIPER-00247            
1 67152U 25301V   26195.35310993  .00001052  00000+0  16698-3 0  9998
2 67152  51.8948 217.9779 0000507  85.5734 274.5286 14.79929254 32599
KUIPER-00248            
1 67153U 25301W   26195.30428993  .00001237  00000+0  19089-3 0  9996
2 67153  51.8966 200.8212 0000799  80.1721 279.9332 14.79999178 32990
KUIPER-00249            
1 67154U 25301X   26195.42331553  .00001110  00000+0  17449-3 0  9993
2 67154  51.8982 215.2264 0000336  81.2609 278.8392 14.79938429 32637
KUIPER-00250            
1 67155U 25301Y   26195.44090079  .00001158  00000+0  18088-3 0  9993
2 67155  51.8984 230.1026 0000461  91.1414 268.9601 14.79923891 32466
KUIPER-00251            
1 67156U 25301Z   26195.58948105  .00001073  00000+0  16970-3 0  9995
2 67156  51.9002 217.0125 0000356  45.7913 314.3079 14.79928617 32810
KUIPER-00252            
1 67157U 25301AA  26195.45171510  .00001201  00000+0  18652-3 0  9992
2 67157  51.8997 220.0731 0000395  86.9642 273.1365 14.79929129 32571
KUIPER-00261            
1 67158U 25301AB  26195.40714485  .00001213  00000+0  18811-3 0  9992
2 67158  51.9013 230.3241 0000301  71.2948 288.8047 14.79939021 32421
