{"fetched_at":"2026-07-15T06:35:30.786Z","source":"https://celestrak.org/NORAD/elements/gp.php?GROUP=kuiper&FORMAT=JSON","constellation":"kuiper","records":[{"OBJECT_NAME":"KUIPER-00191","OBJECT_ID":"2025-301L","EPOCH":"2026-07-14T12:08:15.915264","CLASSIFICATION_TYPE":"U","MEAN_MOTION":14.79930682,"ECCENTRICITY":0.00003526,"INCLINATION":51.8997,"RA_OF_ASC_NODE":232.3687,"ARG_OF_PERICENTER":87.4872,"MEAN_ANOMALY":272.613,"EPHEMERIS_TYPE":0,"NORAD_CAT_ID":67143,"ELEMENT_SET_NO":999,"REV_AT_EPOCH":3243,"BSTAR":-0.000010235078,"MEAN_MOTION_DOT":-0.00000299,"MEAN_MOTION_DDOT":0},{"OBJECT_NAME":"KUIPER-00196","OBJECT_ID":"2025-301M","EPOCH":"2026-07-14T23:39:24.669216","CLASSIFICATION_TYPE":"U","MEAN_MOTION":14.76346659,"ECCENTRICITY":0.00011995,"INCLINATION":51.8974,"RA_OF_ASC_NODE":186.622,"ARG_OF_PERICENTER":352.4341,"MEAN_ANOMALY":7.6601,"EPHEMERIS_TYPE":0,"NORAD_CAT_ID":67144,"ELEMENT_SET_NO":999,"REV_AT_EPOCH":3308,"BSTAR":0.00015551081,"MEAN_MOTION_DOT":0.00000875,"MEAN_MOTION_DDOT":0},{"OBJECT_NAME":"KUIPER-00204","OBJECT_ID":"2025-301N","EPOCH":"2026-07-14T12:02:21.492096","CLASSIFICATION_TYPE":"U","MEAN_MOTION":14.79929975,"ECCENTRICITY":0.0000391,"INCLINATION":51.901,"RA_OF_ASC_NODE":204.8713,"ARG_OF_PERICENTER":19.937,"MEAN_ANOMALY":340.1608,"EPHEMERIS_TYPE":0,"NORAD_CAT_ID":67145,"ELEMENT_SET_NO":999,"REV_AT_EPOCH":3290,"BSTAR":0.00016513,"MEAN_MOTION_DOT":0.00001038,"MEAN_MOTION_DDOT":0},{"OBJECT_NAME":"KUIPER-00210","OBJECT_ID":"2025-301P","EPOCH":"2026-07-14T09:42:24.775488","CLASSIFICATION_TYPE":"U","MEAN_MOTION":14.79935262,"ECCENTRICITY":0.00004226,"INCLINATION":51.8992,"RA_OF_ASC_NODE":232.7695,"ARG_OF_PERICENTER":86.0194,"MEAN_ANOMALY":274.0817,"EPHEMERIS_TYPE":0,"NORAD_CAT_ID":67146,"ELEMENT_SET_NO":999,"REV_AT_EPOCH":3256,"BSTAR":0.0001834244,"MEAN_MOTION_DOT":0.00001178,"MEAN_MOTION_DDOT":0},{"OBJECT_NAME":"KUIPER-00221","OBJECT_ID":"2025-301Q","EPOCH":"2026-07-14T11:56:36.905568","CLASSIFICATION_TYPE":"U","MEAN_MOTION":14.79927935,"ECCENTRICITY":0.00004484,"INCLINATION":51.9003,"RA_OF_ASC_NODE":239.8823,"ARG_OF_PERICENTER":78.2062,"MEAN_ANOMALY":281.8951,"EPHEMERIS_TYPE":0,"NORAD_CAT_ID":67147,"ELEMENT_SET_NO":999,"REV_AT_EPOCH":3230,"BSTAR":0.00017044792,"MEAN_MOTION_DOT":0.00001078,"MEAN_MOTION_DDOT":0},{"OBJECT_NAME":"KUIPER-00232","OBJECT_ID":"2025-301R","EPOCH":"2026-07-14T14:45:46.471680","CLASSIFICATION_TYPE":"U","MEAN_MOTION":14.79936781,"ECCENTRICITY":0.00004097,"INCLINATION":51.8989,"RA_OF_ASC_NODE":224.3839,"ARG_OF_PERICENTER":106.4229,"MEAN_ANOMALY":253.6778,"EPHEMERIS_TYPE":0,"NORAD_CAT_ID":67148,"ELEMENT_SET_NO":999,"REV_AT_EPOCH":3252,"BSTAR":-0.00018385514,"MEAN_MOTION_DOT":-0.00001622,"MEAN_MOTION_DDOT":0},{"OBJECT_NAME":"KUIPER-00241","OBJECT_ID":"2025-301S","EPOCH":"2026-07-14T22:00:03.000096","CLASSIFICATION_TYPE":"U","MEAN_MOTION":14.79904262,"ECCENTRICITY":0.00004015,"INCLINATION":51.9009,"RA_OF_ASC_NODE":233.0519,"ARG_OF_PERICENTER":92.6822,"MEAN_ANOMALY":312.7446,"EPHEMERIS_TYPE":0,"NORAD_CAT_ID":67149,"ELEMENT_SET_NO":999,"REV_AT_EPOCH":424,"BSTAR":0.0031271559,"MEAN_MOTION_DOT":0.00023686,"MEAN_MOTION_DDOT":0},{"OBJECT_NAME":"KUIPER-00245","OBJECT_ID":"2025-301T","EPOCH":"2026-07-14T11:52:44.226048","CLASSIFICATION_TYPE":"U","MEAN_MOTION":14.79923841,"ECCENTRICITY":0.00003925,"INCLINATION":51.9018,"RA_OF_ASC_NODE":242.4282,"ARG_OF_PERICENTER":97.9621,"MEAN_ANOMALY":262.1386,"EPHEMERIS_TYPE":0,"NORAD_CAT_ID":67150,"ELEMENT_SET_NO":999,"REV_AT_EPOCH":3226,"BSTAR":0.00017834656,"MEAN_MOTION_DOT":0.00001138,"MEAN_MOTION_DDOT":0},{"OBJECT_NAME":"KUIPER-00246","OBJECT_ID":"2025-301U","EPOCH":"2026-07-14T14:41:54.361536","CLASSIFICATION_TYPE":"U","MEAN_MOTION":14.79935009,"ECCENTRICITY":0.00004635,"INCLINATION":51.8994,"RA_OF_ASC_NODE":226.8598,"ARG_OF_PERICENTER":102.0124,"MEAN_ANOMALY":258.0891,"EPHEMERIS_TYPE":0,"NORAD_CAT_ID":67151,"ELEMENT_SET_NO":999,"REV_AT_EPOCH":3251,"BSTAR":0.00017619589,"MEAN_MOTION_DOT":0.00001122,"MEAN_MOTION_DDOT":0},{"OBJECT_NAME":"KUIPER-00247","OBJECT_ID":"2025-301V","EPOCH":"2026-07-14T08:28:28.697952","CLASSIFICATION_TYPE":"U","MEAN_MOTION":14.79929254,"ECCENTRICITY":0.00005079,"INCLINATION":51.8948,"RA_OF_ASC_NODE":217.9779,"ARG_OF_PERICENTER":85.5734,"MEAN_ANOMALY":274.5286,"EPHEMERIS_TYPE":0,"NORAD_CAT_ID":67152,"ELEMENT_SET_NO":999,"REV_AT_EPOCH":3259,"BSTAR":0.00016697558,"MEAN_MOTION_DOT":0.00001052,"MEAN_MOTION_DDOT":0},{"OBJECT_NAME":"KUIPER-00248","OBJECT_ID":"2025-301W","EPOCH":"2026-07-14T07:18:10.649952","CLASSIFICATION_TYPE":"U","MEAN_MOTION":14.79999178,"ECCENTRICITY":0.00007998,"INCLINATION":51.8966,"RA_OF_ASC_NODE":200.8212,"ARG_OF_PERICENTER":80.1721,"MEAN_ANOMALY":279.9332,"EPHEMERIS_TYPE":0,"NORAD_CAT_ID":67153,"ELEMENT_SET_NO":999,"REV_AT_EPOCH":3299,"BSTAR":0.00019089289,"MEAN_MOTION_DOT":0.00001237,"MEAN_MOTION_DDOT":0},{"OBJECT_NAME":"KUIPER-00249","OBJECT_ID":"2025-301X","EPOCH":"2026-07-14T10:09:34.461792","CLASSIFICATION_TYPE":"U","MEAN_MOTION":14.79938429,"ECCENTRICITY":0.00003365,"INCLINATION":51.8982,"RA_OF_ASC_NODE":215.2264,"ARG_OF_PERICENTER":81.2609,"MEAN_ANOMALY":278.8392,"EPHEMERIS_TYPE":0,"NORAD_CAT_ID":67154,"ELEMENT_SET_NO":999,"REV_AT_EPOCH":3263,"BSTAR":0.00017448681,"MEAN_MOTION_DOT":0.0000111,"MEAN_MOTION_DDOT":0},{"OBJECT_NAME":"KUIPER-00250","OBJECT_ID":"2025-301Y","EPOCH":"2026-07-14T10:34:53.828256","CLASSIFICATION_TYPE":"U","MEAN_MOTION":14.79923891,"ECCENTRICITY":0.00004619,"INCLINATION":51.8984,"RA_OF_ASC_NODE":230.1026,"ARG_OF_PERICENTER":91.1414,"MEAN_ANOMALY":268.9601,"EPHEMERIS_TYPE":0,"NORAD_CAT_ID":67155,"ELEMENT_SET_NO":999,"REV_AT_EPOCH":3246,"BSTAR":0.00018088225,"MEAN_MOTION_DOT":0.00001158,"MEAN_MOTION_DDOT":0},{"OBJECT_NAME":"KUIPER-00251","OBJECT_ID":"2025-301Z","EPOCH":"2026-07-14T14:08:51.162720","CLASSIFICATION_TYPE":"U","MEAN_MOTION":14.79928617,"ECCENTRICITY":0.00003562,"INCLINATION":51.9002,"RA_OF_ASC_NODE":217.0125,"ARG_OF_PERICENTER":45.7913,"MEAN_ANOMALY":314.3079,"EPHEMERIS_TYPE":0,"NORAD_CAT_ID":67156,"ELEMENT_SET_NO":999,"REV_AT_EPOCH":3281,"BSTAR":0.00016969786,"MEAN_MOTION_DOT":0.00001073,"MEAN_MOTION_DDOT":0},{"OBJECT_NAME":"KUIPER-00252","OBJECT_ID":"2025-301AA","EPOCH":"2026-07-14T10:50:28.184640","CLASSIFICATION_TYPE":"U","MEAN_MOTION":14.79929129,"ECCENTRICITY":0.00003959,"INCLINATION":51.8997,"RA_OF_ASC_NODE":220.0731,"ARG_OF_PERICENTER":86.9642,"MEAN_ANOMALY":273.1365,"EPHEMERIS_TYPE":0,"NORAD_CAT_ID":67157,"ELEMENT_SET_NO":999,"REV_AT_EPOCH":3257,"BSTAR":0.00018651947,"MEAN_MOTION_DOT":0.00001201,"MEAN_MOTION_DDOT":0},{"OBJECT_NAME":"KUIPER-00261","OBJECT_ID":"2025-301AB","EPOCH":"2026-07-14T09:46:17.315040","CLASSIFICATION_TYPE":"U","MEAN_MOTION":14.79939021,"ECCENTRICITY":0.00003013,"INCLINATION":51.9013,"RA_OF_ASC_NODE":230.3241,"ARG_OF_PERICENTER":71.2948,"MEAN_ANOMALY":288.8047,"EPHEMERIS_TYPE":0,"NORAD_CAT_ID":67158,"ELEMENT_SET_NO":999,"REV_AT_EPOCH":3242,"BSTAR":0.00018811448,"MEAN_MOTION_DOT":0.00001213,"MEAN_MOTION_DDOT":0}]}
